start=new Date('2022-08-04T00:00:00.000Z').valueOf();
sats=[{"SEMIMAJOR_AXIS":"6789.831","PERIOD":"92.800","MEAN_ELEMENT_THEORY":"SGP4","SITE":"AFWTR","NORAD_CAT_ID":"53052","MEAN_MOTION":"15.51723476","APOAPSIS":"412.723","TIME_SYSTEM":"UTC","ELEMENT_SET_NO":"999","FILE":"3528364","OBJECT_ID":"2022-077K","GP_ID":"209496820","CLASSIFICATION_TYPE":"U","TLE_LINE1":"1 53052U 22077K   22215.58334491 -.00078487  00000-0 -13308-2 0  9995","OBJECT_TYPE":"PAYLOAD","TLE_LINE2":"2 53052  97.6559  35.1256 0001513  69.0407 160.9854 15.51723476  1304","PERIAPSIS":"410.669","CENTER_NAME":"EARTH","OBJECT_NAME":"STARLINK-4341","RCS_SIZE":"LARGE","ARG_OF_PERICENTER":"69.0407","LAUNCH_DATE":"2022-07-11","EPOCH":"2022-08-03T14:00:01.000224","ECCENTRICITY":"0.00015130","INCLINATION":"97.6559","EPHEMERIS_TYPE":"0","REF_FRAME":"TEME","MEAN_MOTION_DOT":"-0.00078487","RA_OF_ASC_NODE":"35.1256","REV_AT_EPOCH":"130","MEAN_MOTION_DDOT":"0.0000000000000","BSTAR":"-0.00133080000000","DECAY_DATE":null,"MEAN_ANOMALY":"160.9854","COUNTRY_CODE":"US"},{"OBJECT_NAME":"STARLINK-4337","TLE_LINE2":"2 53053  97.6574  35.3920 0001934  82.5848 106.9981 15.51301385  4303","CENTER_NAME":"EARTH","PERIAPSIS":"411.614","RCS_SIZE":"LARGE","GP_ID":"209498277","OBJECT_TYPE":"PAYLOAD","CLASSIFICATION_TYPE":"U","TLE_LINE1":"1 53053U 22077L   22215.83334491  .00426355  00000-0  68933-2 0  9997","SITE":"AFWTR","NORAD_CAT_ID":"53053","MEAN_ELEMENT_THEORY":"SGP4","FILE":"3528416","OBJECT_ID":"2022-077L","ELEMENT_SET_NO":"999","APOAPSIS":"414.241","MEAN_MOTION":"15.51301385","TIME_SYSTEM":"UTC","SEMIMAJOR_AXIS":"6791.062","PERIOD":"92.825","COUNTRY_CODE":"US","MEAN_ANOMALY":"106.9981","RA_OF_ASC_NODE":"35.3920","REV_AT_EPOCH":"430","MEAN_MOTION_DDOT":"0.0000000000000","BSTAR":"0.00689330000000","DECAY_DATE":null,"ECCENTRICITY":"0.00019340","REF_FRAME":"TEME","MEAN_MOTION_DOT":"0.00426355","INCLINATION":"97.6574","EPHEMERIS_TYPE":"0","ARG_OF_PERICENTER":"82.5848","EPOCH":"2022-08-03T20:00:01.000224","LAUNCH_DATE":"2022-07-11"},{"MEAN_ANOMALY":"160.5640","COUNTRY_CODE":"US","DECAY_DATE":null,"BSTAR":"-0.00280520000000","MEAN_MOTION_DDOT":"0.0000000000000","REV_AT_EPOCH":"130","RA_OF_ASC_NODE":"35.1266","EPHEMERIS_TYPE":"0","INCLINATION":"97.6577","MEAN_MOTION_DOT":"-0.00163712","REF_FRAME":"TEME","ECCENTRICITY":"0.00016430","LAUNCH_DATE":"2022-07-11","EPOCH":"2022-08-03T14:00:01.000224","ARG_OF_PERICENTER":"71.0392","RCS_SIZE":"LARGE","CENTER_NAME":"EARTH","PERIAPSIS":"410.514","TLE_LINE2":"2 53054  97.6577  35.1266 0001643  71.0392 160.5640 15.51746221  1309","OBJECT_NAME":"STARLINK-4339","TLE_LINE1":"1 53054U 22077M   22215.58334491 -.00163712  00000-0 -28052-2 0  9995","CLASSIFICATION_TYPE":"U","OBJECT_TYPE":"PAYLOAD","GP_ID":"209496948","MEAN_MOTION":"15.51746221","APOAPSIS":"412.745","TIME_SYSTEM":"UTC","ELEMENT_SET_NO":"999","FILE":"3528364","OBJECT_ID":"2022-077M","MEAN_ELEMENT_THEORY":"SGP4","NORAD_CAT_ID":"53054","SITE":"AFWTR","SEMIMAJOR_AXIS":"6789.764","PERIOD":"92.799"},{"REV_AT_EPOCH":"430","RA_OF_ASC_NODE":"35.3927","MEAN_MOTION_DDOT":"0.0000000000000","BSTAR":"-0.00014749000000","DECAY_DATE":null,"COUNTRY_CODE":"US","MEAN_ANOMALY":"122.1029","ARG_OF_PERICENTER":"69.1951","EPOCH":"2022-08-03T20:00:01.000224","LAUNCH_DATE":"2022-07-11","ECCENTRICITY":"0.00017630","REF_FRAME":"TEME","MEAN_MOTION_DOT":"-0.00008806","EPHEMERIS_TYPE":"0","INCLINATION":"97.6573","GP_ID":"209498273","OBJECT_TYPE":"PAYLOAD","CLASSIFICATION_TYPE":"U","TLE_LINE1":"1 53055U 22077N   22215.83334491 -.00008806  00000-0 -14749-3 0  9995","OBJECT_NAME":"STARLINK-4338","TLE_LINE2":"2 53055  97.6573  35.3927 0001763  69.1951 122.1029 15.51530373  4301","CENTER_NAME":"EARTH","PERIAPSIS":"411.062","RCS_SIZE":"LARGE","SEMIMAJOR_AXIS":"6790.394","PERIOD":"92.812","NORAD_CAT_ID":"53055","SITE":"AFWTR","MEAN_ELEMENT_THEORY":"SGP4","FILE":"3528416","OBJECT_ID":"2022-077N","ELEMENT_SET_NO":"999","MEAN_MOTION":"15.51530373","APOAPSIS":"413.456","TIME_SYSTEM":"UTC"},{"ARG_OF_PERICENTER":"80.5968","LAUNCH_DATE":"2022-07-11","EPOCH":"2022-08-03T20:00:01.000224","ECCENTRICITY":"0.00017460","EPHEMERIS_TYPE":"0","INCLINATION":"97.6578","REF_FRAME":"TEME","MEAN_MOTION_DOT":"0.00415729","REV_AT_EPOCH":"430","RA_OF_ASC_NODE":"35.3923","MEAN_MOTION_DDOT":"0.0000000000000","BSTAR":"0.00672670000000","DECAY_DATE":null,"MEAN_ANOMALY":"108.1329","COUNTRY_CODE":"US","PERIOD":"92.824","SEMIMAJOR_AXIS":"6791.014","MEAN_ELEMENT_THEORY":"SGP4","NORAD_CAT_ID":"53056","SITE":"AFWTR","APOAPSIS":"414.065","MEAN_MOTION":"15.51318010","TIME_SYSTEM":"UTC","ELEMENT_SET_NO":"999","FILE":"3528416","OBJECT_ID":"2022-077P","GP_ID":"209497771","CLASSIFICATION_TYPE":"U","TLE_LINE1":"1 53056U 22077P   22215.83334491  .00415729  00000-0  67267-2 0  9992","OBJECT_TYPE":"PAYLOAD","TLE_LINE2":"2 53056  97.6578  35.3923 0001746  80.5968 108.1329 15.51318010  4308","PERIAPSIS":"411.693","CENTER_NAME":"EARTH","OBJECT_NAME":"STARLINK-4314","RCS_SIZE":"LARGE"},{"MEAN_ANOMALY":"107.2128","COUNTRY_CODE":"US","RA_OF_ASC_NODE":"35.3931","REV_AT_EPOCH":"430","BSTAR":"-0.00661510000000","DECAY_DATE":null,"MEAN_MOTION_DDOT":"0.0000000000000","ECCENTRICITY":"0.00020200","EPHEMERIS_TYPE":"0","INCLINATION":"97.6572","MEAN_MOTION_DOT":"-0.00375704","REF_FRAME":"TEME","ARG_OF_PERICENTER":"85.4688","LAUNCH_DATE":"2022-07-11","EPOCH":"2022-08-03T20:00:01.000224","PERIAPSIS":"410.300","CENTER_NAME":"EARTH","TLE_LINE2":"2 53057  97.6572  35.3931 0002020  85.4688 107.2128 15.51731922  4309","OBJECT_NAME":"STARLINK-4252","RCS_SIZE":"MEDIUM","GP_ID":"209498263","TLE_LINE1":"1 53057U 22077Q   22215.83334491 -.00375704  00000-0 -66151-2 0  9994","CLASSIFICATION_TYPE":"U","OBJECT_TYPE":"PAYLOAD","MEAN_ELEMENT_THEORY":"SGP4","NORAD_CAT_ID":"53057","SITE":"AFWTR","MEAN_MOTION":"15.51731922","APOAPSIS":"413.043","TIME_SYSTEM":"UTC","FILE":"3528416","ELEMENT_SET_NO":"999","OBJECT_ID":"2022-077Q","PERIOD":"92.800","SEMIMAJOR_AXIS":"6789.806"},{"RA_OF_ASC_NODE":"35.1270","REV_AT_EPOCH":"130","MEAN_MOTION_DDOT":"0.0000000000000","DECAY_DATE":null,"BSTAR":"-0.00251580000000","COUNTRY_CODE":"US","MEAN_ANOMALY":"167.4211","ARG_OF_PERICENTER":"67.2050","EPOCH":"2022-08-03T14:00:01.000224","LAUNCH_DATE":"2022-07-11","ECCENTRICITY":"0.00014650","REF_FRAME":"TEME","MEAN_MOTION_DOT":"-0.00147683","EPHEMERIS_TYPE":"0","INCLINATION":"97.6566","GP_ID":"209496564","OBJECT_TYPE":"PAYLOAD","CLASSIFICATION_TYPE":"U","TLE_LINE1":"1 53058U 22077R   22215.58334491 -.00147683  00000-0 -25158-2 0  9992","OBJECT_NAME":"STARLINK-4317","TLE_LINE2":"2 53058  97.6566  35.1270 0001465  67.2050 167.4211 15.51852435  1301","PERIAPSIS":"410.325","CENTER_NAME":"EARTH","RCS_SIZE":"LARGE","SEMIMAJOR_AXIS":"6789.455","PERIOD":"92.792","SITE":"AFWTR","NORAD_CAT_ID":"53058","MEAN_ELEMENT_THEORY":"SGP4","FILE":"3528364","ELEMENT_SET_NO":"999","OBJECT_ID":"2022-077R","MEAN_MOTION":"15.51852435","APOAPSIS":"412.314","TIME_SYSTEM":"UTC"},{"ARG_OF_PERICENTER":"78.2774","EPOCH":"2022-08-03T20:00:01.000224","LAUNCH_DATE":"2022-07-11","ECCENTRICITY":"0.00016170","MEAN_MOTION_DOT":"-0.00043248","REF_FRAME":"TEME","EPHEMERIS_TYPE":"0","INCLINATION":"97.6575","RA_OF_ASC_NODE":"35.3940","REV_AT_EPOCH":"430","DECAY_DATE":null,"BSTAR":"-0.00072697000000","MEAN_MOTION_DDOT":"0.0000000000000","COUNTRY_CODE":"US","MEAN_ANOMALY":"115.9246","SEMIMAJOR_AXIS":"6789.571","PERIOD":"92.795","NORAD_CAT_ID":"53059","SITE":"AFWTR","MEAN_ELEMENT_THEORY":"SGP4","OBJECT_ID":"2022-077S","FILE":"3528433","ELEMENT_SET_NO":"999","MEAN_MOTION":"15.51812485","APOAPSIS":"412.534","TIME_SYSTEM":"UTC","GP_ID":"209498703","OBJECT_TYPE":"PAYLOAD","TLE_LINE1":"1 53059U 22077S   22215.83334491 -.00043248  00000-0 -72697-3 0  9994","CLASSIFICATION_TYPE":"U","OBJECT_NAME":"STARLINK-4320","CENTER_NAME":"EARTH","PERIAPSIS":"410.338","TLE_LINE2":"2 53059  97.6575  35.3940 0001617  78.2774 115.9246 15.51812485  4302","RCS_SIZE":"LARGE"},{"GP_ID":"209497780","OBJECT_TYPE":"PAYLOAD","TLE_LINE1":"1 53060U 22077T   22215.83334491  .00059742  00000-0  10017-2 0  9997","CLASSIFICATION_TYPE":"U","OBJECT_NAME":"STARLINK-4305","CENTER_NAME":"EARTH","PERIAPSIS":"410.802","TLE_LINE2":"2 53060  97.6569  35.3920 0001705  79.1927 112.7676 15.51632962  4305","RCS_SIZE":"LARGE","PERIOD":"92.805","SEMIMAJOR_AXIS":"6790.095","NORAD_CAT_ID":"53060","SITE":"AFWTR","MEAN_ELEMENT_THEORY":"SGP4","FILE":"3528417","OBJECT_ID":"2022-077T","ELEMENT_SET_NO":"999","APOAPSIS":"413.118","TIME_SYSTEM":"UTC","MEAN_MOTION":"15.51632962","REV_AT_EPOCH":"430","RA_OF_ASC_NODE":"35.3920","DECAY_DATE":null,"BSTAR":"0.00100170000000","MEAN_MOTION_DDOT":"0.0000000000000","COUNTRY_CODE":"US","MEAN_ANOMALY":"112.7676","ARG_OF_PERICENTER":"79.1927","EPOCH":"2022-08-03T20:00:01.000224","LAUNCH_DATE":"2022-07-11","ECCENTRICITY":"0.00017050","MEAN_MOTION_DOT":"0.00059742","REF_FRAME":"TEME","INCLINATION":"97.6569","EPHEMERIS_TYPE":"0"},{"CENTER_NAME":"EARTH","PERIAPSIS":"410.635","TLE_LINE2":"2 53061  97.6574  35.3935 0001246  77.3074 118.5697 15.51797258  4308","OBJECT_NAME":"STARLINK-4308","RCS_SIZE":"LARGE","GP_ID":"209498300","TLE_LINE1":"1 53061U 22077U   22215.83334491 -.00207204  00000-0 -35639-2 0  9995","CLASSIFICATION_TYPE":"U","OBJECT_TYPE":"PAYLOAD","MEAN_ELEMENT_THEORY":"SGP4","SITE":"AFWTR","NORAD_CAT_ID":"53061","TIME_SYSTEM":"UTC","APOAPSIS":"412.327","MEAN_MOTION":"15.51797258","ELEMENT_SET_NO":"999","FILE":"3528418","OBJECT_ID":"2022-077U","PERIOD":"92.796","SEMIMAJOR_AXIS":"6789.616","MEAN_ANOMALY":"118.5697","COUNTRY_CODE":"US","RA_OF_ASC_NODE":"35.3935","REV_AT_EPOCH":"430","BSTAR":"-0.00356390000000","DECAY_DATE":null,"MEAN_MOTION_DDOT":"0.0000000000000","ECCENTRICITY":"0.00012460","EPHEMERIS_TYPE":"0","INCLINATION":"97.6574","MEAN_MOTION_DOT":"-0.00207204","REF_FRAME":"TEME","ARG_OF_PERICENTER":"77.3074","LAUNCH_DATE":"2022-07-11","EPOCH":"2022-08-03T20:00:01.000224"}];
